{
  "norad_id": 47796,
  "name": "STARLINK-2373",
  "history": [
    {
      "epoch": "2026-03-28T10:25:48.693504",
      "apogee_km": 548.3282140047904,
      "perigee_km": 546.1598771994122,
      "latitude_deg": 52.208767678075176,
      "longitude_deg": 81.32077056029812,
      "semi_major_axis_km": 6925.381045602101,
      "eccentricity": 0.00015655,
      "inclination_deg": 53.0546,
      "raan_deg": 147.4696,
      "arg_perigee_deg": 87.8656,
      "mean_anomaly_deg": 272.2512,
      "mean_motion_rev_day": 15.063894
    }
  ]
}